ONEWEB-0645             
1 55809U 23029P   26003.97228197 -.00000035  00000+0 -11865-3 0  9992
2 55809  87.9204 337.6600 0001775  65.8706 294.2612 13.19725115137244
ONEWEB-0646             
1 55810U 23029Q   26003.91383910  .00000024  00000+0  28159-4 0  9994
2 55810  87.9215 337.6655 0001524  74.6162 285.5139 13.19725944137229
ONEWEB-0648             
1 55811U 23029R   26003.92632500  .00000094  00000+0  21884-3 0  9992
2 55811  87.9011 322.4331 0001847  47.4677 312.6609 13.14503292137818
ONEWEB-0649             
1 55812U 23029S   26003.93910077 -.00000142  00000+0 -38589-3 0  9998
2 55812  87.9216 337.6576 0001656  69.8335 290.2976 13.19725220137261
ONEWEB-0650             
1 55813U 23029T   26003.93437220 -.00000095  00000+0 -26858-3 0  9996
2 55813  87.9212 337.6627 0001489  69.1539 290.9753 13.19724543137232
ONEWEB-0652             
1 55814U 23029U   26003.90729396 -.00000073  00000+0 -23269-3 0  9991
2 55814  87.9004 322.4569 0001806  84.8653 275.2683 13.14502096137783
ONEWEB-0653             
1 55815U 23029V   26003.89143756 -.00000101  00000+0 -30720-3 0  9992
2 55815  87.9007 322.4489 0001914  80.2581 279.8765 13.14501765137815
ONEWEB-0654             
1 55816U 23029W   26003.88668094 -.00000110  00000+0 -33126-3 0  9992
2 55816  87.9010 322.4496 0001939  88.2645 271.8707 13.14501114137832
